[{"OBJECT_NAME":"HAWK-7A","OBJECT_ID":"2023-054P","EPOCH":"2026-03-09T16:32:19.096224","MEAN_MOTION":15.26207271,"ECCENTRICITY":0.0004249,"INCLINATION":97.2827,"RA_OF_ASC_NODE":318.5579,"ARG_OF_PERICENTER":51.2619,"MEAN_ANOMALY":308.8999,"EPHEMERIS_TYPE":0,"CLASSIFICATION_TYPE":"U","NORAD_CAT_ID":56191,"ELEMENT_SET_NO":999,"REV_AT_EPOCH":16184,"BSTAR":0.00030248406,"MEAN_MOTION_DOT":7.758e-5,"MEAN_MOTION_DDOT":0},{"OBJECT_NAME":"STARLINK-30447","OBJECT_ID":"2023-144L","EPOCH":"2026-03-09T13:26:12.748992","MEAN_MOTION":15.26742466,"ECCENTRICITY":0.0001542,"INCLINATION":42.9968,"RA_OF_ASC_NODE":260.1413,"ARG_OF_PERICENTER":274.2299,"MEAN_ANOMALY":85.8376,"EPHEMERIS_TYPE":0,"CLASSIFICATION_TYPE":"U","NORAD_CAT_ID":57874,"ELEMENT_SET_NO":999,"REV_AT_EPOCH":13791,"BSTAR":6.498104e-6,"MEAN_MOTION_DOT":-8.5e-7,"MEAN_MOTION_DDOT":0}]
